[{"OBJECT_NAME":"STARLINK-31163","OBJECT_ID":"2024-012W","EPOCH":"2026-03-09T07:38:30.535008","MEAN_MOTION":15.27571353,"ECCENTRICITY":0.00024937,"INCLINATION":43.0076,"RA_OF_ASC_NODE":166.9672,"ARG_OF_PERICENTER":302.1524,"MEAN_ANOMALY":57.9085,"EPHEMERIS_TYPE":0,"CLASSIFICATION_TYPE":"U","NORAD_CAT_ID":58807,"ELEMENT_SET_NO":999,"REV_AT_EPOCH":12118,"BSTAR":5.3004281e-5,"MEAN_MOTION_DOT":1.196e-5,"MEAN_MOTION_DDOT":0},{"OBJECT_NAME":"OBJECT A","OBJECT_ID":"2025-013A","EPOCH":"2026-03-09T23:29:31.895232","MEAN_MOTION":15.29260221,"ECCENTRICITY":0.0010321,"INCLINATION":97.6364,"RA_OF_ASC_NODE":244.5149,"ARG_OF_PERICENTER":282.3775,"MEAN_ANOMALY":77.6309,"EPHEMERIS_TYPE":0,"CLASSIFICATION_TYPE":"U","NORAD_CAT_ID":62729,"ELEMENT_SET_NO":999,"REV_AT_EPOCH":6276,"BSTAR":0.0013206527,"MEAN_MOTION_DOT":0.00037616,"MEAN_MOTION_DDOT":0}]
